ONEWEB-0176             
1 48210U 21031A   24152.31128946  .00000045  00000+0  86629-4 0  9993
2 48210  87.8967  78.2966 0002043  79.3400 280.7960 13.14502214150193
ONEWEB-0184             
1 48211U 21031B   24152.36044532 -.00000233  00000+0 -66289-3 0  9997
2 48211  87.8964  78.2711 0003017  83.9844 276.1629 13.14502325150176
ONEWEB-0179             
1 48212U 21031C   24152.33031987  .00000110  00000+0  26264-3 0  9996
2 48212  87.8968  78.2795 0001994  76.3628 283.7723 13.14502284150219
ONEWEB-0180             
1 48213U 21031D   24152.36361881 -.00000173  00000+0 -49983-3 0  9993
2 48213  87.8966  78.2709 0002020  74.9128 285.2225 13.14502341150109
ONEWEB-0218             
1 48214U 21031E   24152.30971272 -.00000136  00000+0 -40212-3 0  9994
2 48214  87.8963  78.2838 0003095  75.8161 284.3312 13.14504383150251
ONEWEB-0209             
1 48215U 21031F   24152.29859864 -.00000397  00000+0 -11046-2 0  9996
2 48215  87.8978  78.3182 0002247  70.9338 289.2034 13.14502653150254
ONEWEB-0198             
1 48216U 21031G   24152.28274170 -.00000232  00000+0 -66030-3 0  9999
2 48216  87.8968  78.3274 0002384  74.3913 285.7480 13.14502622150369
ONEWEB-0189             
1 48217U 21031H   24152.29543057 -.00000081  00000+0 -25343-3 0  9998
2 48217  87.8965  78.3008 0002389  71.9836 288.1554 13.14501970150100
